NORAD_CAT_ID,OBJECT_NAME,OBJECT_TYPE,EPOCH,MEAN_MOTION,ECCENTRICITY,INCLINATION,RA_OF_ASC_NODE,ARG_OF_PERICENTER,MEAN_ANOMALY,BSTAR,MEAN_MOTION_DOT,MEAN_MOTION_DDOT,TLE_LINE0,TLE_LINE1,TLE_LINE2,SEMIMAJOR_AXIS,PERIOD,APOGEE,PERIGEE,DECAYED
53635.0,STARLINK-4587,PAYLOAD,2023-02-10 16:56:21,15.08837301,0.0001297,53.2172,225.3284,76.7731,283.3405,5.054e-05,5.16e-06,0.0,0 STARLINK-4587,1 53635U 22104AZ  23041.70580668  .00000516  00000-0  50540-4 0  9991,2 53635  53.2172 225.3284 0001297  76.7731 283.3405 15.08837301 26694,6917.889,95.438,540.651,538.856,0.0
53635.0,STARLINK-4587,PAYLOAD,2023-02-11 05:39:26,15.08842059,0.000113,53.2173,222.9485,80.3654,279.7466,3.5537e-05,2.78e-06,0.0,0 STARLINK-4587,1 53635U 22104AZ  23042.23572228  .00000278  00000-0  35537-4 0  9997,2 53635  53.2173 222.9485 0001130  80.3654 279.7466 15.08842059 26773,6917.874,95.437,540.521,538.957,0.0
53635.0,STARLINK-4587,PAYLOAD,2023-02-11 18:22:32,15.0882952,0.0001013,53.2176,220.5692,85.4389,274.6719,5.6508e-05,6.11e-06,0.0,0 STARLINK-4587,1 53635U 22104AZ  23042.76565007  .00000611  00000-0  56508-4 0  9994,2 53635  53.2176 220.5692 0001013  85.4389 274.6719 15.08829520 25830,6917.912,95.438,540.478,539.077,0.0
53635.0,STARLINK-4587,PAYLOAD,2023-02-12 13:27:09,15.08834517,0.0001192,53.217,217.0015,85.2321,274.8807,-1.2837e-05,-4.92e-06,0.0,0 STARLINK-4587,1 53635U 22104AZ  23043.56052900 -.00000492  00000-0 -12837-4 0  9992,2 53635  53.2170 217.0015 0001192  85.2321 274.8807 15.08834517 26974,6917.897,95.438,540.587,538.938,0.0
53635.0,STARLINK-4587,PAYLOAD,2023-02-12 18:13:18,15.08840632,0.0001137,53.2173,216.1088,86.2386,273.8736,1.6406e-05,-2.7e-07,0.0,0 STARLINK-4587,1 53635U 22104AZ  23043.75924423 -.00000027  00000-0  16406-4 0  9990,2 53635  53.2173 216.1088 0001137  86.2386 273.8736 15.08840632 25983,6917.878,95.438,540.53,538.957,0.0
53635.0,STARLINK-4587,PAYLOAD,2023-02-13 18:04:06,15.08835469,9.87e-05,53.2176,211.6486,91.2464,268.8641,3.9381e-05,3.39e-06,0.0,0 STARLINK-4587,1 53635U 22104AZ  23044.75284749  .00000339  00000-0  39381-4 0  9993,2 53635  53.2176 211.6486 0000987  91.2464 268.8641 15.08835469 26132,6917.894,95.438,540.442,539.076,0.0
53635.0,STARLINK-4587,PAYLOAD,2023-02-14 06:47:11,15.08835485,0.0001259,53.2179,209.2717,92.9691,267.1445,4.1924e-05,3.79e-06,0.0,0 STARLINK-4587,1 53635U 22104AZ  23045.28276829  .00000379  00000-0  41924-4 0  9992,2 53635  53.2179 209.2717 0001259  92.9691 267.1445 15.08835485 27232,6917.894,95.438,540.63,538.888,0.0
53635.0,STARLINK-4587,PAYLOAD,2023-02-14 17:54:53,15.08834729,0.0001363,53.2178,207.1896,93.5495,266.5653,2.7606e-05,1.51e-06,0.0,0 STARLINK-4587,1 53635U 22104AZ  23045.74644880  .00000151  00000-0  27606-4 0  9998,2 53635  53.2178 207.1896 0001363  93.5495 266.5653 15.08834729 27303,6917.897,95.438,540.704,538.819,0.0
53635.0,STARLINK-4587,PAYLOAD,2023-02-15 03:27:12,15.08835218,0.0001294,53.2184,205.4058,96.5821,263.5318,-1.4044e-05,-5.11e-06,0.0,0 STARLINK-4587,1 53635U 22104AZ  23046.14389176 -.00000511  00000-0 -14044-4 0  9991,2 53635  53.2184 205.4058 0001294  96.5821 263.5318 15.08835218 26342,6917.895,95.438,540.655,538.865,0.0
53635.0,STARLINK-4587,PAYLOAD,2023-02-15 12:59:30,15.08840009,0.0001106,53.2172,203.6196,89.7174,270.3944,-3.5927e-05,-8.6e-06,0.0,0 STARLINK-4587,1 53635U 22104AZ  23046.54133079 -.00000860  00000-0 -35927-4 0  9994,2 53635  53.2172 203.6196 0001106  89.7174 270.3944 15.08840009 27424,6917.88,95.438,540.51,538.98,0.0
53635.0,STARLINK-4587,PAYLOAD,2023-02-16 04:53:21,15.08848139,0.0001133,53.2167,200.6458,87.789,272.3232,5.3976e-05,5.71e-06,0.0,0 STARLINK-4587,1 53635U 22104AZ  23047.20372077  .00000571  00000-0  53976-4 0  9992,2 53635  53.2167 200.6458 0001133  87.7890 272.3232 15.08848139 26501,6917.856,95.437,540.504,538.937,0.0
53635.0,STARLINK-4587,PAYLOAD,2023-02-16 12:50:17,15.08835036,3.19e-05,53.2198,199.1598,98.227,261.8759,0.00017868,2.557e-05,0.0,0 STARLINK-4587,1 53635U 22104AZ  23047.53492273  .00002557  00000-0  17868-3 0  9994,2 53635  53.2198 199.1598 0000319  98.2270 261.8759 15.08835036 26550,6917.896,95.438,539.981,539.54,0.0
53635.0,STARLINK-4587,PAYLOAD,2023-02-17 12:41:04,15.08834536,2.9e-05,53.2199,194.6994,127.6612,232.4406,7.0256e-06,-1.76e-06,0.0,0 STARLINK-4587,1 53635U 22104AZ  23048.52852735 -.00000176  00000-0  70256-5 0  9995,2 53635  53.2199 194.6994 0000290 127.6612 232.4406 15.08834536 27723,6917.897,95.438,539.963,539.561,0.0
53635.0,STARLINK-4587,PAYLOAD,2023-02-17 15:51:51,15.08831336,4.76e-05,53.2194,194.1079,30.4246,329.6774,-1.4174e-05,-5.13e-06,0.0,0 STARLINK-4587,1 53635U 22104AZ  23048.66101199 -.00000513  00000-0 -14174-4 0  9993,2 53635  53.2194 194.1079 0000476  30.4246 329.6774 15.08831336 26728,6917.907,95.438,540.101,539.443,0.0
53635.0,STARLINK-4587,PAYLOAD,2023-02-18 12:31:52,15.0883243,0.0001284,53.2176,190.2386,103.4469,256.6667,-2.8995e-05,-7.49e-06,0.0,0 STARLINK-4587,1 53635U 22104AZ  23049.52213498 -.00000749  00000-0 -28995-4 0  9992,2 53635  53.2176 190.2386 0001284 103.4469 256.6667 15.08832430 27875,6917.904,95.438,540.657,538.88,0.0
53635.0,STARLINK-4587,PAYLOAD,2023-02-19 04:25:43,15.08830451,0.0001217,53.218,187.2659,94.9999,265.1132,5.1924e-05,5.38e-06,0.0,0 STARLINK-4587,1 53635U 22104AZ  23050.18453556  .00000538  00000-0  51924-4 0  9999,2 53635  53.2180 187.2659 0001217  94.9999 265.1132 15.08830451 26958,6917.91,95.438,540.616,538.933,0.0
53635.0,STARLINK-4587,PAYLOAD,2023-02-19 13:58:02,15.08835125,0.0001231,53.2179,185.4821,93.9656,266.1477,8.4941e-05,1.064e-05,0.0,0 STARLINK-4587,1 53635U 22104AZ  23050.58197347  .00001064  00000-0  84941-4 0  9996,2 53635  53.2179 185.4821 0001231  93.9656 266.1477 15.08835125 28039,6917.895,95.438,540.612,538.909,0.0
53635.0,STARLINK-4587,PAYLOAD,2023-02-19 15:33:25,15.08835552,0.0001257,53.218,185.1853,85.6901,274.4234,9.2165e-05,1.179e-05,0.0,0 STARLINK-4587,1 53635U 22104AZ  23050.64821356  .00001179  00000-0  92165-4 0  9991,2 53635  53.2180 185.1853 0001257  85.6901 274.4234 15.08835552 27027,6917.894,95.438,540.629,538.889,0.0
53635.0,STARLINK-4587,PAYLOAD,2023-02-20 13:48:49,15.08838899,0.0001182,53.2182,181.0211,87.3707,272.742,4.5366e-05,4.34e-06,0.0,0 STARLINK-4587,1 53635U 22104AZ  23051.57557448  .00000434  00000-0  45366-4 0  9996,2 53635  53.2182 181.0211 0001182  87.3707 272.7420 15.08838899 28185,6917.884,95.438,540.566,538.931,0.0
53635.0,STARLINK-4587,PAYLOAD,2023-02-21 15:14:59,15.08848468,9.2e-05,53.218,176.2643,77.4491,282.6604,9.7223e-05,1.26e-05,0.0,0 STARLINK-4587,1 53635U 22104AZ  23052.63540645  .00001260  00000-0  97223-4 0  9992,2 53635  53.2180 176.2643 0000920  77.4491 282.6604 15.08848468 27329,6917.855,95.437,540.356,539.083,0.0
53635.0,STARLINK-4587,PAYLOAD,2023-02-21 18:25:44,15.08856374,0.0001097,53.2179,175.6695,80.3018,279.8098,9.6022e-05,1.241e-05,0.0,0 STARLINK-4587,1 53635U 22104AZ  23052.76788055  .00001241  00000-0  96022-4 0  9990,2 53635  53.2179 175.6695 0001097  80.3018 279.8098 15.08856374 27343,6917.83,95.437,540.454,538.936,0.0
53635.0,STARLINK-4587,PAYLOAD,2023-02-22 00:47:18,15.08837453,0.0001411,53.2175,174.4796,79.2658,280.8493,-9.1543e-06,-4.34e-06,0.0,0 STARLINK-4587,1 53635U 22104AZ  23053.03285546 -.00000434  00000-0 -91543-5 0  9997,2 53635  53.2175 174.4796 0001411  79.2658 280.8493 15.08837453 27387,6917.888,95.438,540.729,538.777,0.0
53635.0,STARLINK-4587,PAYLOAD,2023-02-22 13:30:23,15.08840999,0.000132,53.2185,172.0998,76.6253,283.4886,-4.4542e-05,-9.97e-06,0.0,0 STARLINK-4587,1 53635U 22104AZ  23053.56277403 -.00000997  00000-0 -44542-4 0  9998,2 53635  53.2185 172.0998 0001320  76.6253 283.4886 15.08840999 28483,6917.877,95.437,540.655,538.829,0.0
53635.0,STARLINK-4587,PAYLOAD,2023-02-22 18:16:32,15.08845652,0.0001351,53.2184,171.2076,82.5577,277.5569,6.5035e-07,-2.78e-06,0.0,0 STARLINK-4587,1 53635U 22104AZ  23053.76148870 -.00000278  00000-0  65035-6 0  9998,2 53635  53.2184 171.2076 0001351  82.5577 277.5569 15.08845652 27492,6917.863,95.437,540.663,538.794,0.0
53635.0,STARLINK-4587,PAYLOAD,2023-02-23 06:59:38,15.08834179,0.0002128,53.2182,168.8299,80.6418,279.4815,-8.5691e-05,-1.652e-05,0.0,0 STARLINK-4587,1 53635U 22104AZ  23054.29142321 -.00001652  00000-0 -85691-4 0  9998,2 53635  53.2182 168.8299 0002128  80.6418 279.4815 15.08834179 27571,6917.898,95.438,541.235,538.291,0.0
53635.0,STARLINK-4587,PAYLOAD,2023-02-23 11:45:48,15.08824746,0.0001295,53.2208,167.94,91.4572,268.6568,-0.00014553,-2.602e-05,0.0,0 STARLINK-4587,1 53635U 22104AZ  23054.49015030 -.00002602  00000-0 -14553-3 0  9990,2 53635  53.2208 167.9400 0001295  91.4572 268.6568 15.08824746 27607,6917.927,95.439,540.688,538.896,0.0
53635.0,STARLINK-4587,PAYLOAD,2023-02-23 16:31:57,15.08834656,9.3e-05,53.2185,167.0457,70.8947,289.2146,-0.00011809,-2.166e-05,0.0,0 STARLINK-4587,1 53635U 22104AZ  23054.68886386 -.00002166  00000-0 -11809-3 0  9997,2 53635  53.2185 167.0457 0000930  70.8947 289.2146 15.08834656 27631,6917.897,95.438,540.405,539.118,0.0
53635.0,STARLINK-4587,PAYLOAD,2023-02-24 11:36:34,15.08842027,0.0001324,53.2192,163.4791,78.9389,281.1752,8.2512e-05,1.026e-05,0.0,0 STARLINK-4587,1 53635U 22104AZ  23055.48373505  .00001026  00000-0  82512-4 0  9992,2 53635  53.2192 163.4791 0001324  78.9389 281.1752 15.08842027 28778,6917.874,95.437,540.655,538.823,0.0
53635.0,STARLINK-4587,PAYLOAD,2023-02-24 13:11:57,15.08848133,0.0001164,53.2191,163.1805,77.5803,282.5319,1.2095e-05,-9.5e-07,0.0,0 STARLINK-4587,1 53635U 22104AZ  23055.54997331 -.00000095  00000-0  12095-4 0  9993,2 53635  53.2191 163.1805 0001164  77.5803 282.5319 15.08848133 27764,6917.856,95.437,540.526,538.915,0.0
53635.0,STARLINK-4587,PAYLOAD,2023-02-24 16:22:43,15.08856678,0.0001137,53.2194,162.5849,80.3916,279.7205,8.3943e-05,1.049e-05,0.0,0 STARLINK-4587,1 53635U 22104AZ  23055.68244436  .00001049  00000-0  83943-4 0  9998,2 53635  53.2194 162.5849 0001137  80.3916 279.7205 15.08856678 27782,6917.829,95.436,540.481,538.908,0.0
